H1 CPF 01  gfz 2022 10 18 00  7911 terrasarx 
H2 0702601  6201 31698    2022 10 18 00 59 42 2022 10 23 00 00 42   120 1 1  0 0 0
H9
10 0 59870  69822.000000  0    5332713.532  -2495537.216   3567537.349
10 0 59870  69942.000000  0    4782656.727  -2442349.954   4305269.503
10 0 59870  70062.000000  0    4150401.568  -2336127.458   4967217.199
10 0 59870  70182.000000  0    3447947.335  -2177406.201   5541756.914
10 0 59870  70302.000000  0    2688494.924  -1967860.601   6018814.874
10 0 59870  70422.000000  0    1886191.775  -1710289.326   6390038.316
10 0 59870  70542.000000  0    1055863.506  -1408578.864   6648935.950
10 0 59870  70662.000000  0     212736.712  -1067644.253   6790985.662
10 0 59870  70782.000000  0    -627841.227   -693347.791   6813707.926
10 0 59870  70902.000000  0   -1450680.429   -292397.963   6716705.531
10 0 59870  71022.000000  0   -2241021.658    127770.462   6501670.076
10 0 59870  71142.000000  0   -2984800.091    559133.624   6172354.778
10 0 59870  71262.000000  0   -3668896.412    993230.601   5734513.777
10 0 59870  71382.000000  0   -4281371.819   1421327.821   5195808.076
10 0 59870  71502.000000  0   -4811682.458   1834593.500   4565677.544
10 0 59870  71622.000000  0   -5250868.411   2224279.361   3855180.228
10 0 59870  71742.000000  0   -5591712.891   2581904.986   3076801.072
10 0 59870  71862.000000  0   -5828868.389   2899440.972   2244233.697
10 0 59870  71982.000000  0   -5958947.813   3169487.003   1372137.995
10 0 59870  72102.000000  0   -5980577.146   3385440.687    475876.170
10 0 59870  72222.000000  0   -5894405.781   3541651.306   -428765.900
10 0 59870  72342.000000  0   -5703076.572   3633555.022  -1325865.117
10 0 59870  72462.000000  0   -5411156.572   3657789.012  -2199650.690
10 0 59870  72582.000000  0   -5025027.104   3612280.059  -3034790.260
10 0 59870  72702.000000  0   -4552738.878   3496306.140  -3816663.871
10 0 59870  72822.000000  0   -4003835.768   3310529.684  -4531620.777
10 0 59870  72942.000000  0   -3389153.975   3057002.856  -5167214.412
10 0 59870  73062.000000  0   -2720601.011   2739145.040  -5712411.299
10 0 59870  73182.000000  0   -2010921.435   2361694.663  -6157773.394
10 0 59870  73302.000000  0   -1273450.650   1930634.983  -6495611.105
10 0 59870  73422.000000  0    -521864.916   1453096.500  -6720103.523
10 0 59870  73542.000000  0     230068.480    937238.405  -6827388.470
10 0 59870  73662.000000  0     968736.837    392111.051  -6815621.689
10 0 59870  73782.000000  0    1680923.504   -172499.610  -6685006.738
10 0 59870  73902.000000  0    2354039.076   -746243.832  -6437790.408
10 0 59870  74022.000000  0    2976339.138  -1318392.669  -6078228.684
10 0 59870  74142.000000  0    3537127.013  -1878033.361  -5612520.787
10 0 59870  74262.000000  0    4026938.497  -2414273.210  -5048714.025
10 0 59870  74382.000000  0    4437706.213  -2916450.668  -4396575.616
10 0 59870  74502.000000  0    4762897.570  -3374347.191  -3667433.523
10 0 59870  74622.000000  0    4997625.965  -3778395.791  -2873989.192
10 0 59870  74742.000000  0    5138732.698  -4119883.132  -2030102.417
10 0 59870  74862.000000  0    5184835.380  -4391139.078  -1150551.271
10 0 59870  74982.000000  0    5136341.930  -4585709.832   -250771.810
10 0 59870  75102.000000  0    4995427.947  -4698509.873    653418.042
10 0 59870  75222.000000  0    4765977.899  -4725947.191   1546104.715
10 0 59870  75342.000000  0    4453491.141  -4666018.247   2411568.176
10 0 59870  75462.000000  0    4064955.934  -4518370.893   3234566.909
10 0 59870  75582.000000  0    3608694.700  -4284333.906   4000613.475
10 0 59870  75702.000000  0    3094183.347  -3966912.161   4696234.646
10 0 59870  75822.000000  0    2531850.657  -3570746.939   5309210.115
10 0 59870  75942.000000  0    1932863.203  -3102044.475   5828786.115
10 0 59870  76062.000000  0    1308899.339  -2568473.030   6245860.927
10 0 59870  76182.000000  0     671918.669  -1979032.305   6553138.050
10 0 59870  76302.000000  0      33931.197  -1343898.178   6745247.561
10 0 59870  76422.000000  0    -593228.856   -674244.805   6818834.504
10 0 59870  76542.000000  0   -1198121.453     17953.263   6772613.567
10 0 59870  76662.000000  0   -1769908.635    720134.856   6607390.059
10 0 59870  76782.000000  0   -2298548.131   1419379.430   6326046.734
10 0 59870  76902.000000  0   -2774970.196   2102643.822   5933496.688
10 0 59870  77022.000000  0   -3191234.678   2757005.441   5436603.302
10 0 59870  77142.000000  0   -3540666.741   3369908.437   4844066.782
10 0 59870  77262.000000  0   -3817968.300   3929407.524   4166277.596
10 0 59870  77382.000000  0   -4019302.361   4424405.724   3415138.888
10 0 59870  77502.000000  0   -4142348.384   4844880.605   2603859.367
10 0 59870  77622.000000  0   -4186326.622   5182092.653   1746719.078
10 0 59870  77742.000000  0   -4151990.748   5428770.588    858814.237
10 0 59870  77862.000000  0   -4041590.171   5579269.775    -44214.275
10 0 59870  77982.000000  0   -3858801.760   5629700.147   -946465.257
10 0 59870  78102.000000  0   -3608630.974   5578017.739  -1832067.981
10 0 59870  78222.000000  0   -3297285.995   5424077.299  -2685470.351
10 0 59870  78342.000000  0   -2932028.235   5169647.474  -3491717.708
10 0 59870  78462.000000  0   -2521005.263   4818386.211  -4236717.580
10 0 59870  78582.000000  0   -2073069.399   4375779.328  -4907484.179
10 0 59870  78702.000000  0   -1597587.273   3849045.489  -5492357.948
10 0 59870  78822.000000  0   -1104245.278   3247010.796  -5981200.348
10 0 59870  78942.000000  0    -602853.533   2579953.230  -6365560.418
10 0 59870  79062.000000  0    -103152.970   1859421.801  -6638808.993
10 0 59870  79182.000000  0     385369.575   1098035.556  -6796241.886
10 0 59870  79302.000000  0     853656.750    309264.610  -6835152.921
10 0 59870  79422.000000  0    1293245.005   -492804.011  -6754875.546
10 0 59870  79542.000000  0    1696413.453  -1293712.767  -6556791.500
10 0 59870  79662.000000  0    2056316.020  -2078886.996  -6244309.224
10 0 59870  79782.000000  0    2367096.510  -2833893.463  -5822812.115
10 0 59870  79902.000000  0    2623984.236  -3544702.308  -5299577.161
10 0 59870  80022.000000  0    2823369.444  -4197949.162  -4683659.720
10 0 59870  80142.000000  0    2962854.815  -4781187.599  -3985745.876
10 0 59870  80262.000000  0    3041283.523  -5283130.252  -3217978.200
10 0 59870  80382.000000  0    3058743.305  -5693876.282  -2393752.923
10 0 59870  80502.000000  0    3016545.277  -6005115.900  -1527489.736
10 0 59870  80622.000000  0    2917177.991  -6210307.818   -634379.597
10 0 59870  80742.000000  0    2764235.868  -6304824.482    269886.466
10 0 59870  80862.000000  0    2562324.078  -6286058.756   1169399.674
10 0 59870  80982.000000  0    2316943.077  -6153492.488   2048321.674
10 0 59870  81102.000000  0    2034354.216  -5908721.248   2891173.885
10 0 59870  81222.000000  0    1721430.713  -5555435.205   3683117.430
10 0 59870  81342.000000  0    1385497.777  -5099359.331   4410219.345
10 0 59870  81462.000000  0    1034166.691  -4548153.801   5059700.235
10 0 59870  81582.000000  0     675166.418  -3911277.714   5620160.203
10 0 59870  81702.000000  0     316175.746  -3199816.315   6081777.017
10 0 59870  81822.000000  0     -35338.368  -2426278.996   6436471.833
10 0 59870  81942.000000  0    -372273.574  -1604374.225   6678043.507
10 0 59870  82062.000000  0    -688033.283   -748764.366   6802271.472
10 0 59870  82182.000000  0    -976654.312    125197.415   6806986.044
10 0 59870  82302.000000  0   -1232918.758   1001743.118   6692103.947
10 0 59870  82422.000000  0   -1452447.889   1864973.825   6459629.334
10 0 59870  82542.000000  0   -1631777.086   2699147.332   6113621.190
10 0 59870  82662.000000  0   -1768410.963   3488965.727   5660126.697
10 0 59870  82782.000000  0   -1860857.130   4219857.837   5107081.216
10 0 59870  82902.000000  0   -1908638.836   4878253.119   4464176.515
10 0 59870  83022.000000  0   -1912285.768   5451841.113   3742695.732
10 0 59870  83142.000000  0   -1873302.873   5929810.490   2955318.302
10 0 59870  83262.000000  0   -1794118.602   6303061.666   2115897.129
10 0 59870  83382.000000  0   -1678012.437   6564389.113   1239212.168
10 0 59870  83502.000000  0   -1529022.884   6708627.522    340704.620
10 0 59870  83622.000000  0   -1351839.297   6732758.222   -563802.031
10 0 59870  83742.000000  0   -1151680.100   6635974.316  -1458390.200
10 0 59870  83862.000000  0    -934159.063   6419697.894  -2327339.935
10 0 59870  83982.000000  0    -705145.590   6087549.955  -3155411.788
10 0 59870  84102.000000  0    -470622.130   5645279.016  -3928116.230
10 0 59870  84222.000000  0    -236541.826   5100650.398  -4631967.233
10 0 59870  84342.000000  0      -8689.933   4463297.575  -5254714.245
10 0 59870  84462.000000  0     207448.265   3744540.931  -5785548.902
10 0 59870  84582.000000  0     406809.810   2957176.976  -6215283.742
10 0 59870  84702.000000  0     584863.565   2115243.742  -6536499.738
10 0 59870  84822.000000  0     737705.714   1233768.810  -6743662.752
10 0 59870  84942.000000  0     862139.668    328502.829  -6833209.489
10 0 59870  85062.000000  0     955738.970   -584357.539  -6803602.189
10 0 59870  85182.000000  0    1016892.385  -1488453.577  -6655351.023
10 0 59870  85302.000000  0    1044830.814  -2367549.271  -6391004.863
10 0 59870  85422.000000  0    1039636.478  -3205815.065  -6015113.842
10 0 59870  85542.000000  0    1002232.995  -3988110.406  -5534160.989
10 0 59870  85662.000000  0     934356.553  -4700257.127  -4956459.653
10 0 59870  85782.000000  0     838509.778  -5329298.746  -4292021.302
10 0 59870  85902.000000  0     717897.380  -5863743.612  -3552393.091
10 0 59870  86022.000000  0     576345.157  -6293784.853  -2750465.294
10 0 59870  86142.000000  0     418204.177  -6611492.270  -1900252.489
10 0 59870  86262.000000  0     248241.889  -6810972.023  -1016650.106
99
